BEIDOU 3 (C01)          
1 36287U 10001A   22064.26693487 -.00000294  00000+0  00000+0 0  9991
2 36287   1.9036  47.8839 0002608  19.1216 332.4302  1.00268939 44465
BEIDOU 5 (C06)          
1 36828U 10036A   22064.26511966 -.00000146  00000+0  00000+0 0  9997
2 36828  54.1920 177.1834 0027625 182.1660   7.7368  1.00276428 42532
BEIDOU 6 (C04)          
1 37210U 10057A   22064.60083388 -.00000124  00000+0  00000+0 0  9992
2 37210   0.9808  54.2091 0003854 149.4119 336.0110  1.00270749 41593
BEIDOU 7 (C07)          
1 37256U 10068A   22064.04548799 -.00000183  00000+0  00000+0 0  9999
2 37256  50.3958 290.8951 0017728 184.8361 171.7781  1.00282903 41096
BEIDOU 8 (C08)          
1 37384U 11013A   22064.26666712 -.00000168  00000+0  00000+0 0  9995
2 37384  60.1472  55.2863 0019900 196.0590 116.1414  1.00283316 39975
BEIDOU 9 (C09)          
1 37763U 11038A   22063.55124866 -.00000093  00000+0  00000+0 0  9990
2 37763  54.4762 179.6692 0089820 225.7095  48.3982  1.00256668 38945
BEIDOU 10 (C10)         
1 37948U 11073A   22063.99133226 -.00000137  00000+0  00000+0 0  9991
2 37948  50.5100 290.5283 0076989 218.2432 106.7603  1.00276354 37702
BEIDOU 11 (C05)         
1 38091U 12008A   22064.22758091  .00000046  00000+0  00000+0 0  9998
2 38091   1.3362  64.2983 0013651 315.7876 283.2440  1.00272886 36784
BEIDOU 12 (C11)         
1 38250U 12018A   22064.18805545 -.00000111  00000+0  00000+0 0  9992
2 38250  56.7201 357.0034 0023238 257.5692 247.6601  1.86234426 67147
BEIDOU 13 (C12)         
1 38251U 12018B   22064.30500929 -.00000111  00000+0  00000+0 0  9995
2 38251  56.6385 356.3307 0014197 263.9938   3.9076  1.86234205 67147
BEIDOU 15 (C14)         
1 38775U 12050B   22064.21929984 -.00000002  00000+0  00000+0 0  9997
2 38775  55.3389 115.1937 0013890 318.6206  88.5028  1.86231287 64525
BEIDOU 16 (C02)         
1 38953U 12059A   22064.55489081 -.00000187  00000+0  00000+0 0  9994
2 38953   1.7322  84.6170 0012850 285.1631  77.1864  1.00275691 34363
BEIDOU 17 (C31)         
1 40549U 15019A   22063.99485541 -.00000165  00000+0  00000+0 0  9997
2 40549  52.0614 313.9682 0035371 189.7476 112.4573  1.00264431 25387
BEIDOU 18 (C57)         
1 40748U 15037A   22063.35560623 -.00000112  00000+0  00000+0 0  9995
2 40748  55.8954 355.2916 0005360 354.5441 266.4130  1.86233299 44959
BEIDOU 19 (C58)         
1 40749U 15037B   22063.57829612 -.00000112  00000+0  00000+0 0  9996
2 40749  55.8969 355.2738 0006911 324.4138 220.7996  1.86232213 44958
BEIDOU 20 (C18)         
1 40938U 15053A   22064.26293564 -.00000113  00000+0  00000+0 0  9993
2 40938  51.6597 277.0655 0043537 192.6709 244.0010  1.00270052 23662
BEIDOU IGSO-6 (C13)     
1 41434U 16021A   22064.27047150 -.00000134  00000+0  00000+0 0  9993
2 41434  57.9480  53.9097 0043685 219.7750  80.8469  1.00261866 21784
BEIDOU-2 G7 (C03)       
1 41586U 16037A   22064.22282803 -.00000367  00000+0  00000+0 0  9997
2 41586   1.7460  68.0961 0008864 359.8787 285.7024  1.00269285 21090
BEIDOU-3 M1 (C19)       
1 43001U 17069A   22064.52759742 -.00000004  00000+0  00000+0 0  9999
2 43001  55.4921 115.1694 0010913 285.8407 124.1617  1.86231625 29468
BEIDOU-3 M2 (C20)       
1 43002U 17069B   22063.50272899  .00000005  00000+0  00000+0 0  9990
2 43002  55.4916 115.2413 0008906 305.1253 180.9037  1.86231356 29431
BEIDOU-3 M3 (C27)       
1 43107U 18003A   22064.41854927 -.00000114  00000+0  00000+0 0  9996
2 43107  55.3431 356.2207 0004881  37.2540 148.8091  1.86232392 28215
BEIDOU-3 M4 (C28)       
1 43108U 18003B   22063.42145688 -.00000113  00000+0  00000+0 0  9993
2 43108  55.3370 356.2440 0003367 272.0039  10.0334  1.86230853 28194
BEIDOU-3 M5 (C21)       
1 43207U 18018A   22063.44691854  .00000005  00000+0  00000+0 0  9991
2 43207  55.4506 115.3237 0006021 322.5082  37.5319  1.86231373 27580
BEIDOU-3 M6 (C22)       
1 43208U 18018B   22062.43966905  .00000011  00000+0  00000+0 0  9999
2 43208  55.4500 115.3619 0009194 294.5801  65.4062  1.86231308 27561
BEIDOU-3 M7 (C29)       
1 43245U 18029A   22063.62925597 -.00000112  00000+0  00000+0 0  9999
2 43245  55.2622 354.0228 0001420 334.5713 312.6624  1.86232467 26730
BEIDOU-3 M8 (C30)       
1 43246U 18029B   22063.40952301 -.00000112  00000+0  10000-3 0  9994
2 43246  55.2595 354.0609 0005267 350.1656 196.1978  1.86232732 26727
BEIDOU IGSO-7 (C16)     
1 43539U 18057A   22063.48603898 -.00000153  00000+0  00000+0 0  9992
2 43539  55.0742 176.6363 0045688 223.8000  46.8767  1.00289572 13452
BEIDOU-3 M9 (C23)       
1 43581U 18062A   22063.96299316  .00000014  00000+0  00000+0 0  9999
2 43581  54.3097 235.6614 0001972 324.6588  83.4999  1.86231803 24485
BEIDOU-3 M10 (C24)      
1 43582U 18062B   22063.69753337  .00000011  00000+0  00000+0 0  9995
2 43582  54.3090 235.6599 0006656  24.3166 297.5577  1.86232102 24473
BEIDOU-3 M11 (C25)      
1 43602U 18067A   22062.40136667  .00000006  00000+0  00000+0 0  9996
2 43602  54.3909 234.3103 0007824  15.2375 199.1973  1.86231644 23949
BEIDOU-3 M12 (C26)      
1 43603U 18067B   22063.91485084  .00000014  00000+0  00000+0 0  9993
2 43603  54.3872 234.2251 0004736  11.8508  47.7021  1.86231520 23991
BEIDOU-3 M13 (C32)      
1 43622U 18072A   22064.32467885 -.00000003  00000+0  00000+0 0  9994
2 43622  55.4177 114.8538 0007657 280.0394  83.8752  1.86231397 23513
BEIDOU-3 M14 (C33)      
1 43623U 18072B   22064.12424854 -.00000001  00000+0  00000+0 0  9990
2 43623  55.4193 114.8526 0005347 300.4462  19.3268  1.86231459 23500
BEIDOU-3 M15 (C34)      
1 43647U 18078A   22062.61437315 -.00000112  00000+0  10000-3 0  9998
2 43647  55.1566 354.2258 0007602 355.9406 286.9535  1.86232710 22989
BEIDOU-3 M16 (C35)      
1 43648U 18078B   22064.36733696 -.00000113  00000+0  00000+0 0  9990
2 43648  55.1537 354.1724 0005460   3.7105 282.4479  1.86232158 23030
BEIDOU-3 G1 (C59)       
1 43683U 18085A   22064.19515433 -.00000292  00000+0  00000+0 0  9993
2 43683   0.8383 184.8156 0001509 347.1640 201.1927  1.00268980 12369
BEIDOU-3 M17 (C36)      
1 43706U 18093A   22063.55555868  .00000011  00000+0  00000+0 0  9991
2 43706  54.3917 235.5520 0007161 281.4780  78.3996  1.86231943 22382
BEIDOU-3 M18 (C37)      
1 43707U 18093B   22064.27935676  .00000017  00000+0  00000+0 0  9997
2 43707  54.3915 235.5186 0006714 319.5519 256.7198  1.86232042 22382
BEIDOU-3 IGSO-1 (C38)   
1 44204U 19023A   22063.02009469 -.00000200  00000+0  00000+0 0  9993
2 44204  56.4096  54.1020 0020760 205.4891  27.6040  1.00289492 10658
BEIDOU-2 G8             
1 44231U 19027A   22064.28121403 -.00000260  00000+0  00000+0 0  9995
2 44231   0.6189  70.2887 0005017 143.5285 194.8761  1.00274581 10389
BEIDOU-3 IGSO-2 (C39)   
1 44337U 19035A   22063.68878506 -.00000157  00000+0  00000+0 0  9992
2 44337  55.1138 172.6584 0022505 189.7307 166.4549  1.00285229  9999
BEIDOU-3 M23 (C45)      
1 44542U 19061A   22064.02793704  .00000015  00000+0  00000+0 0  9996
2 44542  54.6179 235.6575 0008098 353.3912   6.5563  1.86231310 16644
BEIDOU-3 M24 (C46)      
1 44543U 19061B   22063.95875892  .00000014  00000+0  00000+0 0  9996
2 44543  54.6156 235.6303 0005269 352.4357 232.2877  1.86231435 16632
BEIDOU-3 IGSO-3         
1 44709U 19073A   22064.04714514 -.00000163  00000+0  00000+0 0  9993
2 44709  57.4282 297.4645 0020103 173.7664 187.1990  1.00287334  8765
BEIDOU-3 M21            
1 44793U 19078A   22064.07589373 -.00000113  00000+0  10000-3 0  9997
2 44793  55.0057 354.2100 0007512   2.2644 134.5727  1.86232127 15501
BEIDOU-3 M22            
1 44794U 19078B   22064.18956584 -.00000113  00000+0  00000+0 0  9997
2 44794  54.9799 354.1994 0005465 358.0494 126.4673  1.86232709 15509
BEIDOU-3 M19            
1 44864U 19090A   22063.97035196  .00000001  00000+0  00000+0 0  9997
2 44864  55.3527 115.0812 0017926 267.7240 264.3345  1.86231786 15089
BEIDOU-3 M20            
1 44865U 19090B   22063.48167640  .00000005  00000+0  00000+0 0  9998
2 44865  55.3542 115.1293 0016036 280.7292  13.5793  1.86231702 15049
BEIDOU-3 G2             
1 45344U 20017A   22064.11142491 -.00000154  00000+0  00000+0 0  9996
2 45344   2.1441 347.0311 0002201  69.4400 226.4655  1.00273082  7562
BEIDOU-3 G3             
1 45807U 20040A   22064.04574964 -.00000368  00000+0  00000+0 0  9999
2 45807   1.6815 300.7665 0007734 348.6317   0.3488  1.00269796  6387
